{
    "links": {
        "self": "http://www.neowsapp.com/rest/v1/neo/3843882?api_key=iIulBulltgU6a56xZRHN4H3l9WmuAYTsLGpBGhQ2"
    },
    "id": "3843882",
    "neo_reference_id": "3843882",
    "name": "(2019 SO)",
    "designation": "2019 SO",
    "nasa_jpl_url": "http://ssd.jpl.nasa.gov/sbdb.cgi?sstr=3843882",
    "absolute_magnitude_h": 24.4,
    "estimated_diameter": {
        "kilometers": {
            "estimated_diameter_min": 0.0350392641,
            "estimated_diameter_max": 0.0783501764
        },
        "meters": {
            "estimated_diameter_min": 35.0392641108,
            "estimated_diameter_max": 78.3501764334
        },
        "miles": {
            "estimated_diameter_min": 0.0217723826,
            "estimated_diameter_max": 0.0486845275
        },
        "feet": {
            "estimated_diameter_min": 114.9582192654,
            "estimated_diameter_max": 257.0543928497
        }
    },
    "is_potentially_hazardous_asteroid": false,
    "close_approach_data": [
        {
            "close_approach_date": "1913-09-02",
            "close_approach_date_full": "1913-Sep-02 09:13",
            "epoch_date_close_approach": -1777646820000,
            "relative_velocity": {
                "kilometers_per_second": "5.0122985212",
                "kilometers_per_hour": "18044.274676149",
                "miles_per_hour": "11212.010561966"
            },
            "miss_distance": {
                "astronomical": "0.1385792028",
                "lunar": "53.9073098892",
                "kilometers": "20731153.565178036",
                "miles": "12881741.4911114568"
            },
            "orbiting_body": "Earth"
        },
        {
            "close_approach_date": "2019-09-22",
            "close_approach_date_full": "2019-Sep-22 08:56",
            "epoch_date_close_approach": 1569142560000,
            "relative_velocity": {
                "kilometers_per_second": "4.5877075948",
                "kilometers_per_hour": "16515.7473412139",
                "miles_per_hour": "10262.2431187671"
            },
            "miss_distance": {
                "astronomical": "0.1265263269",
                "lunar": "49.2187411641",
                "kilometers": "18928069.003163703",
                "miles": "11761356.6972089814"
            },
            "orbiting_body": "Earth"
        },
        {
            "close_approach_date": "2069-11-23",
            "close_approach_date_full": "2069-Nov-23 16:10",
            "epoch_date_close_approach": 3152448600000,
            "relative_velocity": {
                "kilometers_per_second": "3.9304090176",
                "kilometers_per_hour": "14149.472463286",
                "miles_per_hour": "8791.9319314235"
            },
            "miss_distance": {
                "astronomical": "0.4892204968",
                "lunar": "190.3067732552",
                "kilometers": "73186344.281621816",
                "miles": "45475885.5917644208"
            },
            "orbiting_body": "Earth"
        }
    ],
    "orbital_data": {
        "orbit_id": "7",
        "orbit_determination_date": "2019-10-21 05:58:22",
        "first_observation_date": "2019-09-18",
        "last_observation_date": "2019-10-21",
        "data_arc_in_days": 33,
        "observations_used": 26,
        "orbit_uncertainty": "7",
        "minimum_orbit_intersection": ".0924929",
        "jupiter_tisserand_invariant": "4.171",
        "epoch_osculation": "2459000.5",
        "eccentricity": ".3449033638979933",
        "semi_major_axis": "1.675031199652233",
        "inclination": "1.483054430821435",
        "ascending_node_longitude": "4.595925889327452",
        "orbital_period": "791.8315063575285",
        "perihelion_distance": "1.097307304258087",
        "perihelion_argument": "349.2449855921591",
        "aphelion_distance": "2.252755095046379",
        "perihelion_time": "2458748.574576478628",
        "mean_anomaly": "114.5359230335351",
        "mean_motion": ".4546421771672375",
        "equinox": "J2000",
        "orbit_class": {
            "orbit_class_type": "AMO",
            "orbit_class_description": "Near-Earth asteroid orbits similar to that of 1221 Amor",
            "orbit_class_range": "1.017 AU < q (perihelion) < 1.3 AU"
        }
    },
    "is_sentry_object": false
}